start=new Date('2022-10-02T00:00:00.000Z').valueOf();
sats=[{"EPOCH":"2022-10-01T22:00:00.999936","CENTER_NAME":"EARTH","OBJECT_NAME":"STARLINK-4631","FILE":"3588844","PERIAPSIS":"348.641","NORAD_CAT_ID":"53786","MEAN_ANOMALY":"116.6887","APOAPSIS":"350.633","RA_OF_ASC_NODE":"163.8781","SEMIMAJOR_AXIS":"6727.772","OBJECT_ID":"2022-111P","BSTAR":"-0.00085227000000","TLE_LINE2":"2 53786  53.2151 163.8781 0001480 132.7082 116.6887 15.73243248  1308","MEAN_MOTION":"15.73243248","GP_ID":"213980986","MEAN_MOTION_DDOT":"0.0000000000000","COUNTRY_CODE":"US","OBJECT_TYPE":"PAYLOAD","MEAN_ELEMENT_THEORY":"SGP4","CLASSIFICATION_TYPE":"U","LAUNCH_DATE":"2022-09-11","REF_FRAME":"TEME","ELEMENT_SET_NO":"999","REV_AT_EPOCH":"130","PERIOD":"91.531","ARG_OF_PERICENTER":"132.7082","DECAY_DATE":null,"MEAN_MOTION_DOT":"-0.00118779","INCLINATION":"53.2151","TIME_SYSTEM":"UTC","TLE_LINE1":"1 53786U 22111P   22274.91667824 -.00118779  00000-0 -85227-3 0  9998","ECCENTRICITY":"0.00014800","SITE":"AFETR","EPHEMERIS_TYPE":"0","RCS_SIZE":"LARGE"},{"MEAN_MOTION_DDOT":"0.0000000000000","COUNTRY_CODE":"US","MEAN_MOTION":"15.73216665","GP_ID":"213980393","APOAPSIS":"350.839","RA_OF_ASC_NODE":"163.8730","BSTAR":"-0.00082710000000","TLE_LINE2":"2 53787  53.2163 163.8730 0001674 149.9162 102.4972 15.73216665  1301","OBJECT_ID":"2022-111Q","SEMIMAJOR_AXIS":"6727.848","FILE":"3588844","PERIAPSIS":"348.586","EPOCH":"2022-10-01T22:00:00.999936","CENTER_NAME":"EARTH","OBJECT_NAME":"STARLINK-4743","MEAN_ANOMALY":"102.4972","NORAD_CAT_ID":"53787","EPHEMERIS_TYPE":"0","SITE":"AFETR","ECCENTRICITY":"0.00016740","RCS_SIZE":"LARGE","MEAN_MOTION_DOT":"-0.00115210","INCLINATION":"53.2163","TLE_LINE1":"1 53787U 22111Q   22274.91667824 -.00115210  00000-0 -82710-3 0  9990","TIME_SYSTEM":"UTC","REF_FRAME":"TEME","ARG_OF_PERICENTER":"149.9162","PERIOD":"91.532","DECAY_DATE":null,"ELEMENT_SET_NO":"999","REV_AT_EPOCH":"130","MEAN_ELEMENT_THEORY":"SGP4","OBJECT_TYPE":"PAYLOAD","LAUNCH_DATE":"2022-09-11","CLASSIFICATION_TYPE":"U"},{"CLASSIFICATION_TYPE":"U","LAUNCH_DATE":"2022-09-11","OBJECT_TYPE":"PAYLOAD","MEAN_ELEMENT_THEORY":"SGP4","ELEMENT_SET_NO":"999","REV_AT_EPOCH":"130","ARG_OF_PERICENTER":"320.2594","PERIOD":"90.875","DECAY_DATE":null,"REF_FRAME":"TEME","TIME_SYSTEM":"UTC","TLE_LINE1":"1 53788U 22111R   22274.91667824  .00108101  00000-0  45665-3 0  9998","MEAN_MOTION_DOT":"0.00108101","INCLINATION":"53.2025","RCS_SIZE":"LARGE","ECCENTRICITY":"0.00064050","SITE":"AFETR","EPHEMERIS_TYPE":"0","NORAD_CAT_ID":"53788","MEAN_ANOMALY":"141.2131","EPOCH":"2022-10-01T22:00:00.999936","CENTER_NAME":"EARTH","OBJECT_NAME":"STARLINK-4744","FILE":"3588844","PERIAPSIS":"313.168","OBJECT_ID":"2022-111R","SEMIMAJOR_AXIS":"6695.591","TLE_LINE2":"2 53788  53.2025 162.6899 0006405 320.2594 141.2131 15.84598997  1303","BSTAR":"0.00045665000000","APOAPSIS":"321.745","RA_OF_ASC_NODE":"162.6899","GP_ID":"213980145","MEAN_MOTION":"15.84598997","COUNTRY_CODE":"US","MEAN_MOTION_DDOT":"0.0000000000000"},{"REV_AT_EPOCH":"130","ELEMENT_SET_NO":"999","DECAY_DATE":null,"ARG_OF_PERICENTER":"73.5714","PERIOD":"91.531","REF_FRAME":"TEME","CLASSIFICATION_TYPE":"U","LAUNCH_DATE":"2022-09-11","OBJECT_TYPE":"PAYLOAD","MEAN_ELEMENT_THEORY":"SGP4","RCS_SIZE":"LARGE","ECCENTRICITY":"0.00011620","SITE":"AFETR","EPHEMERIS_TYPE":"0","TIME_SYSTEM":"UTC","TLE_LINE1":"1 53789U 22111S   22274.91667824 -.00129591  00000-0 -93168-3 0  9998","MEAN_MOTION_DOT":"-0.00129591","INCLINATION":"53.2157","SEMIMAJOR_AXIS":"6727.786","OBJECT_ID":"2022-111S","BSTAR":"-0.00093168000000","TLE_LINE2":"2 53789  53.2157 163.8706 0001162  73.5714 180.0092 15.73238439  1304","RA_OF_ASC_NODE":"163.8706","APOAPSIS":"350.432","NORAD_CAT_ID":"53789","MEAN_ANOMALY":"180.0092","CENTER_NAME":"EARTH","OBJECT_NAME":"STARLINK-4666","EPOCH":"2022-10-01T22:00:00.999936","PERIAPSIS":"348.869","FILE":"3588844","COUNTRY_CODE":"US","MEAN_MOTION_DDOT":"0.0000000000000","GP_ID":"213981154","MEAN_MOTION":"15.73238439"},{"EPHEMERIS_TYPE":"0","SITE":"AFETR","ECCENTRICITY":"0.00013680","RCS_SIZE":"MEDIUM","INCLINATION":"53.2158","MEAN_MOTION_DOT":"-0.00095699","TLE_LINE1":"1 53790U 22111T   22274.91667824 -.00095699  00000-0 -68517-3 0  9991","TIME_SYSTEM":"UTC","REF_FRAME":"TEME","PERIOD":"91.533","ARG_OF_PERICENTER":"117.4138","DECAY_DATE":null,"ELEMENT_SET_NO":"999","REV_AT_EPOCH":"130","MEAN_ELEMENT_THEORY":"SGP4","OBJECT_TYPE":"PAYLOAD","LAUNCH_DATE":"2022-09-11","CLASSIFICATION_TYPE":"U","MEAN_MOTION_DDOT":"0.0000000000000","COUNTRY_CODE":"US","MEAN_MOTION":"15.73201514","GP_ID":"213980731","APOAPSIS":"350.676","RA_OF_ASC_NODE":"163.8747","BSTAR":"-0.00068517000000","TLE_LINE2":"2 53790  53.2158 163.8747 0001368 117.4138 134.4533 15.73201514  1305","SEMIMAJOR_AXIS":"6727.891","OBJECT_ID":"2022-111T","FILE":"3588844","PERIAPSIS":"348.835","EPOCH":"2022-10-01T22:00:00.999936","CENTER_NAME":"EARTH","OBJECT_NAME":"STARLINK-4734","NORAD_CAT_ID":"53790","MEAN_ANOMALY":"134.4533"},{"OBJECT_TYPE":"PAYLOAD","MEAN_ELEMENT_THEORY":"SGP4","CLASSIFICATION_TYPE":"U","LAUNCH_DATE":"2022-09-11","REF_FRAME":"TEME","ELEMENT_SET_NO":"999","REV_AT_EPOCH":"327","PERIOD":"90.878","ARG_OF_PERICENTER":"321.4967","DECAY_DATE":null,"INCLINATION":"53.2027","MEAN_MOTION_DOT":"0.00131920","TIME_SYSTEM":"UTC","TLE_LINE1":"1 53791U 22111U   22274.70975163  .00131920  00000-0  55654-3 0  9991","ECCENTRICITY":"0.00065960","SITE":"AFETR","EPHEMERIS_TYPE":"0","RCS_SIZE":"LARGE","EPOCH":"2022-10-01T17:02:02.540832","OBJECT_NAME":"STARLINK-A","CENTER_NAME":"EARTH","FILE":"3588844","PERIAPSIS":"313.199","MEAN_ANOMALY":"38.5587","NORAD_CAT_ID":"53791","APOAPSIS":"322.032","RA_OF_ASC_NODE":"163.7319","OBJECT_ID":"2022-111U","SEMIMAJOR_AXIS":"6695.751","TLE_LINE2":"2 53791  53.2027 163.7319 0006596 321.4967  38.5587 15.84542316  3271","BSTAR":"0.00055654000000","MEAN_MOTION":"15.84542316","GP_ID":"213979976","MEAN_MOTION_DDOT":"0.0000000000000","COUNTRY_CODE":"US"},{"INCLINATION":"53.2160","MEAN_MOTION_DOT":"-0.00082205","TLE_LINE1":"1 53792U 22111V   22274.91667824 -.00082205  00000-0 -58776-3 0  9998","TIME_SYSTEM":"UTC","SITE":"AFETR","EPHEMERIS_TYPE":"0","ECCENTRICITY":"0.00016150","RCS_SIZE":"LARGE","MEAN_ELEMENT_THEORY":"SGP4","OBJECT_TYPE":"PAYLOAD","LAUNCH_DATE":"2022-09-11","CLASSIFICATION_TYPE":"U","REF_FRAME":"TEME","DECAY_DATE":null,"ARG_OF_PERICENTER":"154.4477","PERIOD":"91.535","REV_AT_EPOCH":"130","ELEMENT_SET_NO":"999","MEAN_MOTION":"15.73169971","GP_ID":"213980562","MEAN_MOTION_DDOT":"0.0000000000000","COUNTRY_CODE":"US","PERIAPSIS":"348.759","FILE":"3588844","OBJECT_NAME":"STARLINK-4739","CENTER_NAME":"EARTH","EPOCH":"2022-10-01T22:00:00.999936","NORAD_CAT_ID":"53792","MEAN_ANOMALY":"98.6349","RA_OF_ASC_NODE":"163.8720","APOAPSIS":"350.932","TLE_LINE2":"2 53792  53.2160 163.8720 0001615 154.4477  98.6349 15.73169971  1309","BSTAR":"-0.00058776000000","OBJECT_ID":"2022-111V","SEMIMAJOR_AXIS":"6727.981"},{"SEMIMAJOR_AXIS":"6727.795","OBJECT_ID":"2022-111W","BSTAR":"-0.00077623000000","TLE_LINE2":"2 53793  53.2163 163.8690 0001333 101.9374 152.8193 15.73235030  1309","RA_OF_ASC_NODE":"163.8690","APOAPSIS":"350.557","MEAN_ANOMALY":"152.8193","NORAD_CAT_ID":"53793","CENTER_NAME":"EARTH","OBJECT_NAME":"STARLINK-4728","EPOCH":"2022-10-01T22:00:00.999936","PERIAPSIS":"348.763","FILE":"3588844","COUNTRY_CODE":"US","MEAN_MOTION_DDOT":"0.0000000000000","GP_ID":"213980900","MEAN_MOTION":"15.73235030","REV_AT_EPOCH":"130","ELEMENT_SET_NO":"999","DECAY_DATE":null,"PERIOD":"91.531","ARG_OF_PERICENTER":"101.9374","REF_FRAME":"TEME","CLASSIFICATION_TYPE":"U","LAUNCH_DATE":"2022-09-11","OBJECT_TYPE":"PAYLOAD","MEAN_ELEMENT_THEORY":"SGP4","RCS_SIZE":"LARGE","ECCENTRICITY":"0.00013330","EPHEMERIS_TYPE":"0","SITE":"AFETR","TIME_SYSTEM":"UTC","TLE_LINE1":"1 53793U 22111W   22274.91667824 -.00108329  00000-0 -77623-3 0  9997","MEAN_MOTION_DOT":"-0.00108329","INCLINATION":"53.2163"},{"DECAY_DATE":null,"PERIOD":"91.534","ARG_OF_PERICENTER":"126.3399","REV_AT_EPOCH":"130","ELEMENT_SET_NO":"999","REF_FRAME":"TEME","LAUNCH_DATE":"2022-09-11","CLASSIFICATION_TYPE":"U","MEAN_ELEMENT_THEORY":"SGP4","OBJECT_TYPE":"PAYLOAD","RCS_SIZE":"LARGE","SITE":"AFETR","EPHEMERIS_TYPE":"0","ECCENTRICITY":"0.00012860","TLE_LINE1":"1 53794U 22111X   22274.91667824 -.00063909  00000-0 -45468-3 0  9994","TIME_SYSTEM":"UTC","INCLINATION":"53.2154","MEAN_MOTION_DOT":"-0.00063909","BSTAR":"-0.00045468000000","TLE_LINE2":"2 53794  53.2154 163.8686 0001286 126.3399 127.8771 15.73185611  1303","SEMIMAJOR_AXIS":"6727.936","OBJECT_ID":"2022-111X","RA_OF_ASC_NODE":"163.8686","APOAPSIS":"350.666","MEAN_ANOMALY":"127.8771","NORAD_CAT_ID":"53794","PERIAPSIS":"348.936","FILE":"3588844","CENTER_NAME":"EARTH","OBJECT_NAME":"STARLINK-4730","EPOCH":"2022-10-01T22:00:00.999936","COUNTRY_CODE":"US","MEAN_MOTION_DDOT":"0.0000000000000","GP_ID":"213980987","MEAN_MOTION":"15.73185611"},{"APOAPSIS":"351.148","RA_OF_ASC_NODE":"163.8674","BSTAR":"-0.00036563000000","TLE_LINE2":"2 53795  53.2159 163.8674 0001857 156.0342  99.4330 15.73151492  1303","OBJECT_ID":"2022-111Y","SEMIMAJOR_AXIS":"6728.033","FILE":"3588844","PERIAPSIS":"348.649","EPOCH":"2022-10-01T22:00:00.999936","OBJECT_NAME":"STARLINK-4742","CENTER_NAME":"EARTH","MEAN_ANOMALY":"99.4330","NORAD_CAT_ID":"53795","MEAN_MOTION_DDOT":"0.0000000000000","COUNTRY_CODE":"US","MEAN_MOTION":"15.73151492","GP_ID":"213980394","REF_FRAME":"TEME","ARG_OF_PERICENTER":"156.0342","PERIOD":"91.536","DECAY_DATE":null,"ELEMENT_SET_NO":"999","REV_AT_EPOCH":"130","MEAN_ELEMENT_THEORY":"SGP4","OBJECT_TYPE":"PAYLOAD","LAUNCH_DATE":"2022-09-11","CLASSIFICATION_TYPE":"U","SITE":"AFETR","EPHEMERIS_TYPE":"0","ECCENTRICITY":"0.00018570","RCS_SIZE":"LARGE","INCLINATION":"53.2159","MEAN_MOTION_DOT":"-0.00051518","TLE_LINE1":"1 53795U 22111Y   22274.91667824 -.00051518  00000-0 -36563-3 0  9994","TIME_SYSTEM":"UTC"}];
